OBJECT_NAME,OBJECT_ID,EPOCH,MEAN_MOTION,ECCENTRICITY,INCLINATION,RA_OF_ASC_NODE,ARG_OF_PERICENTER,MEAN_ANOMALY,EPHEMERIS_TYPE,CLASSIFICATION_TYPE,NORAD_CAT_ID,ELEMENT_SET_NO,REV_AT_EPOCH,BSTAR,MEAN_MOTION_DOT,MEAN_MOTION_DDOT
SUOMI NPP,2011-061A,2026-06-20T07:13:22.743552,14.19517972,.00013563,98.7953,112.1558,359.4380,0.6794,0,U,37849,999,75888,.50508631E-4,.62E-6,0
YAOGAN-12,2011-066B,2026-06-20T08:18:53.548704,15.26629429,.00090659,97.1139,209.7666,203.4717,156.6110,0,U,37875,999,81252,.13492396E-3,.347E-4,0
BEIDOU-2 M4,2012-018B,2026-06-19T19:20:20.325120,1.86229250,.00113444,55.6555,304.0008,275.1430,84.7206,0,U,38251,999,9599,0,-.86E-6,0
ARIRANG-3 (KOMPSAT-3),2012-025B,2026-06-20T07:37:01.339104,14.62208471,.00067592,98.1172,128.7233,101.5707,258.6254,0,U,38338,999,75180,.74137812E-4,.327E-5,0
METOP-B,2012-049A,2026-06-20T06:53:02.880960,14.21440199,.00020486,98.6502,222.7241,11.1813,348.9410,0,U,38771,999,71370,.47760909E-4,.61E-6,0
SJ-9A,2012-056A,2026-06-20T06:18:43.820352,14.85483184,.00240683,97.6710,143.1033,245.8832,113.9867,0,U,38860,999,70004,.84575184E-4,.68E-5,0
COSMOS 2484 (RODNIK-S 6),2013-001C,2026-06-20T06:50:52.010016,12.42939440,.00267394,82.5004,219.9668,29.9983,330.2622,0,U,39059,999,60894,.26585763E-3,.47E-6,0
SARAL,2013-009A,2026-06-20T06:04:29.850528,14.32856554,.00006194,98.5558,357.7815,284.3528,75.7587,0,U,39086,999,69604,.34758972E-4,.51E-6,0
STRAND-1,2013-009E,2026-06-19T23:31:22.565856,14.37164594,.00078768,98.3923,351.1457,216.0202,144.0455,0,U,39090,999,69746,.79706741E-4,.194E-5,0
BRITE-AUSTRIA,2013-009F,2026-06-19T07:08:40.083360,14.36542792,.00092316,98.3996,349.6811,229.4697,130.5686,0,U,39091,999,69735,.5550137E-4,.12E-5,0
GAOFEN-1,2013-018A,2026-06-20T07:34:47.578944,14.76540604,.00156856,97.9090,243.3205,255.1744,104.7728,0,U,39150,999,70870,.10381219E-3,.674E-5,0
NEE-01 PEGASO,2013-018B,2026-06-19T08:12:56.297664,14.93669357,.00133076,98.1228,314.5632,152.2100,207.9832,0,U,39151,999,71102,.24785549E-3,.2563E-4,0
PROBA-V,2013-021A,2026-06-20T05:04:49.552032,14.23597478,.00052434,98.3584,149.6690,116.3951,243.7767,0,U,39159,999,68154,.39560227E-4,.49E-6,0
ARIRANG-5 (KOMPSAT-5),2013-042A,2026-06-20T07:00:32.051232,15.04494383,.0005411,97.6202,357.9486,113.4388,246.7407,0,U,39227,999,70432,.17320166E-4,.182E-5,0
GONETS-M 5,2013-048A,2026-06-20T06:06:10.654272,12.42891598,.00162282,82.4835,341.4691,203.4311,156.6031,0,U,39249,999,57926,-.44776782E-3,-.52E-6,0
GONETS-M 7,2013-048C,2026-06-20T07:08:40.181856,12.42914532,.00170031,82.4902,344.3661,204.7121,155.3146,0,U,39251,999,57922,-.18408477E-3,-.16E-6,0
FENGYUN 3C,2013-052A,2026-06-20T05:22:44.039712,14.15755651,.00150648,98.4987,144.9595,19.3025,340.8717,0,U,39260,999,65899,.42299494E-4,.42E-6,0
CASSIOPE,2013-055A,2026-06-20T05:53:05.554752,15.25456799,.0291711,80.9141,63.0075,52.1969,310.5289,0,U,39265,999,66813,.50857435E-3,.46724E-3,-.441933E-6
APRIZESAT 7,2013-066A,2026-06-20T07:22:01.839072,14.91569426,.00352427,97.7709,124.4820,198.6791,161.3137,0,U,39416,999,68169,.75024441E-4,.703E-5,0
ZACUBE-1 (TSHEPISOSAT),2013-066B,2026-06-19T22:33:52.000416,15.01201080,.00411525,97.8072,133.2914,238.1921,121.5293,0,U,39417,999,68114,.18524965E-3,.2355E-4,0
APRIZESAT 8,2013-066K,2026-06-20T02:25:21.138240,14.87657155,.0044342,97.8221,118.5281,276.6414,82.9756,0,U,39425,999,68010,.79821804E-4,.681E-5,0
